{"type": "FeatureCollection", "features": [ {"type": "Feature", "properties": {"norad_id": 31182, "name": "FENGYUN 1C DEB", "group": "fengyun-1c-debris", "lat": 80.04093318381959, "lon": -135.5691057395314, "alt_km": 820.2142878326604, "timestamp": "2025-12-21T07:34:34.797236+00:00", "meta": {"OBJECT_NAME": "FENGYUN 1C DEB", "OBJECT_ID": "1999-025BJL", "EPOCH": "2025-12-17T10:29:25.287072", "MEAN_MOTION": 14.14559703, "ECCENTRICITY": 0.00234665, "INCLINATION": 98.6819, "RA_OF_ASC_NODE": 340.1808, "ARG_OF_PERICENTER": 123.4909, "MEAN_ANOMALY": 31.1675, "EPHEMERIS_TYPE": 0, "CLASSIFICATION_TYPE": "U", "NORAD_CAT_ID": 31182, "ELEMENT_SET_NO": 999, "REV_AT_EPOCH": 96147, "BSTAR": 0.00031818865, "MEAN_MOTION_DOT": 5.7e-06, "MEAN_MOTION_DDOT": 0}, "tle": {"line1": "1 31182U 99025BJL 25351.43709823  .00000570  00000+0  31819-3 0  9998", "line2": "2 31182  98.6819 340.1808 0023466 123.4909  31.1675 14.14559703961470"}}, "geometry": {"type": "Point", "coordinates": [-135.5691057395314, 80.04093318381959]}}, {"type": "Feature", "properties": {"norad_id": 31183, "name": "FENGYUN 1C DEB", "group": "fengyun-1c-debris", "lat": 33.29272592024401, "lon": -26.32139410536078, "alt_km": 699.2582778726955, "timestamp": "2025-12-21T07:34:34.797245+00:00", "meta": {"OBJECT_NAME": "FENGYUN 1C DEB", "OBJECT_ID": "1999-025BJM", "EPOCH": "2025-12-20T21:45:40.556160", "MEAN_MOTION": 14.50500692, "ECCENTRICITY": 0.00477727, "INCLINATION": 99.0367, "RA_OF_ASC_NODE": 339.2389, "ARG_OF_PERICENTER": 83.4121, "MEAN_ANOMALY": 336.5666, "EPHEMERIS_TYPE": 0, "CLASSIFICATION_TYPE": "U", "NORAD_CAT_ID": 31183, "ELEMENT_SET_NO": 999, "REV_AT_EPOCH": 97601, "BSTAR": 0.00080359342, "MEAN_MOTION_DOT": 3.14e-05, "MEAN_MOTION_DDOT": 0}, "tle": {"line1": "1 31183U 99025BJM 25354.90671940  .00003140  00000+0  80359-3 0  9991", "line2": "2 31183  99.0367 339.2389 0047772  83.4121 336.5666 14.50500692976015"}}, "geometry": {"type": "Point", "coordinates": [-26.32139410536078, 33.29272592024401]}}, {"type": "Feature", "properties": {"norad_id": 31185, "name": "FENGYUN 1C DEB", "group": "fengyun-1c-debris", "lat": -39.203416706014465, "lon": -1.1811383620269862, "alt_km": 905.4689235784417, "timestamp": "2025-12-21T07:34:34.797254+00:00", "meta": {"OBJECT_NAME": "FENGYUN 1C DEB", "OBJECT_ID": "1999-025BJP", "EPOCH": "2025-12-03T06:44:56.905152", "MEAN_MOTION": 14.03019915, "ECCENTRICITY": 0.0041359, "INCLINATION": 98.8321, "RA_OF_ASC_NODE": 334.0356, "ARG_OF_PERICENTER": 132.5488, "MEAN_ANOMALY": 227.9182, "EPHEMERIS_TYPE": 0, "CLASSIFICATION_TYPE": "U", "NORAD_CAT_ID": 31185, "ELEMENT_SET_NO": 999, "REV_AT_EPOCH": 62204, "BSTAR": 0.0004459, "MEAN_MOTION_DOT": 6.55e-06, "MEAN_MOTION_DDOT": 0}, "tle": {"line1": "1 31185U 99025BJP 25337.28121418  .00000655  00000+0  44590-3 0  9990", "line2": "2 31185  98.8321 334.0356 0041359 132.5488 227.9182 14.03019915622046"}}, "geometry": {"type": "Point", "coordinates": [-1.1811383620269862, -39.203416706014465]}}, {"type": "Feature", "properties": {"norad_id": 31186, "name": "FENGYUN 1C DEB", "group": "fengyun-1c-debris", "lat": 80.76472020288934, "lon": -173.066177021565, "alt_km": 829.4596137141198, "timestamp": "2025-12-21T07:34:34.797263+00:00", "meta": {"OBJECT_NAME": "FENGYUN 1C DEB", "OBJECT_ID": "1999-025BJQ", "EPOCH": "2025-12-19T13:30:27.946080", "MEAN_MOTION": 14.12917828, "ECCENTRICITY": 0.0026476, "INCLINATION": 99.1791, "RA_OF_ASC_NODE": 269.0931, "ARG_OF_PERICENTER": 44.5258, "MEAN_ANOMALY": 133.2754, "EPHEMERIS_TYPE": 0, "CLASSIFICATION_TYPE": "U", "NORAD_CAT_ID": 31186, "ELEMENT_SET_NO": 999, "REV_AT_EPOCH": 96201, "BSTAR": 0.00034315, "MEAN_MOTION_DOT": 5.94e-06, "MEAN_MOTION_DDOT": 0}, "tle": {"line1": "1 31186U 99025BJQ 25353.56282345  .00000594  00000+0  34315-3 0  9993", "line2": "2 31186  99.1791 269.0931 0026476  44.5258 133.2754 14.12917828962016"}}, "geometry": {"type": "Point", "coordinates": [-173.066177021565, 80.76472020288934]}}, {"type": "Feature", "properties": {"norad_id": 31187, "name": "FENGYUN 1C DEB", "group": "fengyun-1c-debris", "lat": -20.779765094339083, "lon": -136.71753752727358, "alt_km": 819.3943411156033, "timestamp": "2025-12-21T07:34:34.797272+00:00", "meta": {"OBJECT_NAME": "FENGYUN 1C DEB", "OBJECT_ID": "1999-025BJR", "EPOCH": "2025-12-18T02:20:54.271104", "MEAN_MOTION": 14.59549756, "ECCENTRICITY": 0.02196552, "INCLINATION": 99.2414, "RA_OF_ASC_NODE": 216.1564, "ARG_OF_PERICENTER": 207.4437, "MEAN_ANOMALY": 151.5021, "EPHEMERIS_TYPE": 0, "CLASSIFICATION_TYPE": "U", "NORAD_CAT_ID": 31187, "ELEMENT_SET_NO": 999, "REV_AT_EPOCH": 69178, "BSTAR": 0.0021858268, "MEAN_MOTION_DOT": 0.00014532, "MEAN_MOTION_DDOT": 0}, "tle": {"line1": "1 31187U 99025BJR 25352.09785036  .00014532  00000+0  21858-2 0  9990", "line2": "2 31187  99.2414 216.1564 0219655 207.4437 151.5021 14.59549756691782"}}, "geometry": {"type": "Point", "coordinates": [-136.71753752727358, -20.779765094339083]}}, {"type": "Feature", "properties": {"norad_id": 31188, "name": "FENGYUN 1C DEB", "group": "fengyun-1c-debris", "lat": 67.54326298208439, "lon": -95.06821058904221, "alt_km": 823.2324226088795, "timestamp": "2025-12-21T07:34:34.797281+00:00", "meta": {"OBJECT_NAME": "FENGYUN 1C DEB", "OBJECT_ID": "1999-025BJS", "EPOCH": "2025-12-20T10:54:53.855136", "MEAN_MOTION": 14.23871102, "ECCENTRICITY": 0.00606883, "INCLINATION": 98.7482, "RA_OF_ASC_NODE": 62.2032, "ARG_OF_PERICENTER": 227.2613, "MEAN_ANOMALY": 153.7162, "EPHEMERIS_TYPE": 0, "CLASSIFICATION_TYPE": "U", "NORAD_CAT_ID": 31188, "ELEMENT_SET_NO": 999, "REV_AT_EPOCH": 96446, "BSTAR": 0.0010018781, "MEAN_MOTION_DOT": 2.294e-05, "MEAN_MOTION_DDOT": 0}, "tle": {"line1": "1 31188U 99025BJS 25354.45478999  .00002294  00000+0  10019-2 0  9999", "line2": "2 31188  98.7482  62.2032 0060688 227.2613 153.7162 14.23871102964460"}}, "geometry": {"type": "Point", "coordinates": [-95.06821058904221, 67.54326298208439]}}, {"type": "Feature", "properties": {"norad_id": 31190, "name": "FENGYUN 1C DEB", "group": "fengyun-1c-debris", "lat": 6.202505663884729, "lon": 6.816350963636065, "alt_km": 915.369986649539, "timestamp": "2025-12-21T07:34:34.797290+00:00", "meta": {"OBJECT_NAME": "FENGYUN 1C DEB", "OBJECT_ID": "1999-025BJU", "EPOCH": "2025-12-15T23:14:05.075520", "MEAN_MOTION": 14.03609027, "ECCENTRICITY": 0.00676763, "INCLINATION": 98.819, "RA_OF_ASC_NODE": 2.5971, "ARG_OF_PERICENTER": 250.3103, "MEAN_ANOMALY": 109.0754, "EPHEMERIS_TYPE": 0, "CLASSIFICATION_TYPE": "U", "NORAD_CAT_ID": 31190, "ELEMENT_SET_NO": 999, "REV_AT_EPOCH": 95592, "BSTAR": 0.00091857664, "MEAN_MOTION_DOT": 1.428e-05, "MEAN_MOTION_DDOT": 0}, "tle": {"line1": "1 31190U 99025BJU 25349.96811430  .00001428  00000+0  91858-3 0  9992", "line2": "2 31190  98.8190   2.5971 0067676 250.3103 109.0754 14.03609027955929"}}, "geometry": {"type": "Point", "coordinates": [6.816350963636065, 6.202505663884729]}}, {"type": "Feature", "properties": {"norad_id": 31191, "name": "FENGYUN 1C DEB", "group": "fengyun-1c-debris", "lat": -54.03419416782045, "lon": -91.26182020410138, "alt_km": 810.2224221067909, "timestamp": "2025-12-21T07:34:34.797299+00:00", "meta": {"OBJECT_NAME": "FENGYUN 1C DEB", "OBJECT_ID": "1999-025BJV", "EPOCH": "2025-12-20T00:10:04.982304", "MEAN_MOTION": 14.40805759, "ECCENTRICITY": 0.00926097, "INCLINATION": 98.7829, "RA_OF_ASC_NODE": 255.0929, "ARG_OF_PERICENTER": 172.7634, "MEAN_ANOMALY": 187.4915, "EPHEMERIS_TYPE": 0, "CLASSIFICATION_TYPE": "U", "NORAD_CAT_ID": 31191, "ELEMENT_SET_NO": 999, "REV_AT_EPOCH": 98117, "BSTAR": 0.00021491188, "MEAN_MOTION_DOT": 6.75e-06, "MEAN_MOTION_DDOT": 0}, "tle": {"line1": "1 31191U 99025BJV 25354.00700211  .00000675  00000+0  21491-3 0  9997", "line2": "2 31191  98.7829 255.0929 0092609 172.7634 187.4915 14.40805759981172"}}, "geometry": {"type": "Point", "coordinates": [-91.26182020410138, -54.03419416782045]}}, {"type": "Feature", "properties": {"norad_id": 31192, "name": "FENGYUN 1C DEB", "group": "fengyun-1c-debris", "lat": -47.2135412703863, "lon": -11.902495798124983, "alt_km": 937.531783931071, "timestamp": "2025-12-21T07:34:34.797308+00:00", "meta": {"OBJECT_NAME": "FENGYUN 1C DEB", "OBJECT_ID": "1999-025BJW", "EPOCH": "2025-12-18T05:26:47.399136", "MEAN_MOTION": 14.20969234, "ECCENTRICITY": 0.02596771, "INCLINATION": 98.5531, "RA_OF_ASC_NODE": 335.7459, "ARG_OF_PERICENTER": 87.8687, "MEAN_ANOMALY": 275.22, "EPHEMERIS_TYPE": 0, "CLASSIFICATION_TYPE": "U", "NORAD_CAT_ID": 31192, "ELEMENT_SET_NO": 999, "REV_AT_EPOCH": 96821, "BSTAR": 0.00023851293, "MEAN_MOTION_DOT": 6.81e-06, "MEAN_MOTION_DDOT": 0}, "tle": {"line1": "1 31192U 99025BJW 25352.22693749  .00000681  00000+0  23851-3 0  9996", "line2": "2 31192  98.5531 335.7459 0259677  87.8687 275.2200 14.20969234968219"}}, "geometry": {"type": "Point", "coordinates": [-11.902495798124983, -47.2135412703863]}}, {"type": "Feature", "properties": {"norad_id": 31194, "name": "FENGYUN 1C DEB", "group": "fengyun-1c-debris", "lat": 3.895192438589442, "lon": -115.88219408271164, "alt_km": 785.7596112623851, "timestamp": "2025-12-21T07:34:34.797317+00:00", "meta": {"OBJECT_NAME": "FENGYUN 1C DEB", "OBJECT_ID": "1999-025BJY", "EPOCH": "2025-12-20T09:49:44.442624", "MEAN_MOTION": 14.36689054, "ECCENTRICITY": 0.00570396, "INCLINATION": 98.9638, "RA_OF_ASC_NODE": 243.7907, "ARG_OF_PERICENTER": 256.4756, "MEAN_ANOMALY": 103.007, "EPHEMERIS_TYPE": 0, "CLASSIFICATION_TYPE": "U", "NORAD_CAT_ID": 31194, "ELEMENT_SET_NO": 999, "REV_AT_EPOCH": 97237, "BSTAR": 0.0006097291, "MEAN_MOTION_DOT": 1.782e-05, "MEAN_MOTION_DDOT": 0}, "tle": {"line1": "1 31194U 99025BJY 25354.40954216  .00001782  00000+0  60973-3 0  9998", "line2": "2 31194  98.9638 243.7907 0057039 256.4756 103.0070 14.36689054972379"}}, "geometry": {"type": "Point", "coordinates": [-115.88219408271164, 3.895192438589442]}}]}